{"type": "FeatureCollection", "features": [ {"type": "Feature", "properties": {"norad_id": 33841, "name": "COSMOS 2251 DEB", "group": "cosmos-2251-debris", "lat": -66.71220324557817, "lon": -149.85316156501682, "alt_km": 761.2714220516264, "timestamp": "2025-12-26T23:26:42.516792+00:00", "meta": {"OBJECT_NAME": "COSMOS 2251 DEB", "OBJECT_ID": "1993-036CJ", "EPOCH": "2025-12-26T19:04:51.672000", "MEAN_MOTION": 14.37879801, "ECCENTRICITY": 0.0021079, "INCLINATION": 74.0371, "RA_OF_ASC_NODE": 252.1645, "ARG_OF_PERICENTER": 330.0167, "MEAN_ANOMALY": 96.473, "EPHEMERIS_TYPE": 0, "CLASSIFICATION_TYPE": "U", "NORAD_CAT_ID": 33841, "ELEMENT_SET_NO": 999, "REV_AT_EPOCH": 88316, "BSTAR": 0.00021038, "MEAN_MOTION_DOT": 6.1e-06, "MEAN_MOTION_DDOT": 0}, "tle": {"line1": "1 33841U 93036CJ  25360.79504250  .00000610  00000+0  21038-3 0  9991", "line2": "2 33841  74.0371 252.1645 0021079 330.0167  96.4730 14.37879801883160"}}, "geometry": {"type": "Point", "coordinates": [-149.85316156501682, -66.71220324557817]}}, {"type": "Feature", "properties": {"norad_id": 33842, "name": "COSMOS 2251 DEB", "group": "cosmos-2251-debris", "lat": 64.85762901278268, "lon": -129.17874482863596, "alt_km": 765.7342662295314, "timestamp": "2025-12-26T23:26:42.516801+00:00", "meta": {"OBJECT_NAME": "COSMOS 2251 DEB", "OBJECT_ID": "1993-036CK", "EPOCH": "2025-12-26T14:47:56.698944", "MEAN_MOTION": 14.42723111, "ECCENTRICITY": 0.0047615, "INCLINATION": 74.0314, "RA_OF_ASC_NODE": 193.8936, "ARG_OF_PERICENTER": 298.4874, "MEAN_ANOMALY": 61.1491, "EPHEMERIS_TYPE": 0, "CLASSIFICATION_TYPE": "U", "NORAD_CAT_ID": 33842, "ELEMENT_SET_NO": 999, "REV_AT_EPOCH": 88537, "BSTAR": 0.00027823, "MEAN_MOTION_DOT": 9.12e-06, "MEAN_MOTION_DDOT": 0}, "tle": {"line1": "1 33842U 93036CK  25360.61662846  .00000912  00000+0  27823-3 0  9992", "line2": "2 33842  74.0314 193.8936 0047615 298.4874  61.1491 14.42723111885374"}}, "geometry": {"type": "Point", "coordinates": [-129.17874482863596, 64.85762901278268]}}, {"type": "Feature", "properties": {"norad_id": 33844, "name": "COSMOS 2251 DEB", "group": "cosmos-2251-debris", "lat": -71.39797192654052, "lon": -95.13586528406638, "alt_km": 813.4819067922199, "timestamp": "2025-12-26T23:26:42.516811+00:00", "meta": {"OBJECT_NAME": "COSMOS 2251 DEB", "OBJECT_ID": "1993-036CM", "EPOCH": "2025-12-26T12:43:33.173184", "MEAN_MOTION": 14.33743318, "ECCENTRICITY": 0.0047251, "INCLINATION": 74.0664, "RA_OF_ASC_NODE": 27.6012, "ARG_OF_PERICENTER": 45.1539, "MEAN_ANOMALY": 71.0596, "EPHEMERIS_TYPE": 0, "CLASSIFICATION_TYPE": "U", "NORAD_CAT_ID": 33844, "ELEMENT_SET_NO": 999, "REV_AT_EPOCH": 87923, "BSTAR": 0.0003646, "MEAN_MOTION_DOT": 1e-05, "MEAN_MOTION_DDOT": 0}, "tle": {"line1": "1 33844U 93036CM  25360.53024506  .00001000  00000+0  36460-3 0  9996", "line2": "2 33844  74.0664  27.6012 0047251  45.1539  71.0596 14.33743318879239"}}, "geometry": {"type": "Point", "coordinates": [-95.13586528406638, -71.39797192654052]}}, {"type": "Feature", "properties": {"norad_id": 33848, "name": "COSMOS 2251 DEB", "group": "cosmos-2251-debris", "lat": -65.4155306295971, "lon": -170.10613714418926, "alt_km": 771.5920631488289, "timestamp": "2025-12-26T23:26:42.516820+00:00", "meta": {"OBJECT_NAME": "COSMOS 2251 DEB", "OBJECT_ID": "1993-036CR", "EPOCH": "2025-12-26T16:26:41.147808", "MEAN_MOTION": 14.44161732, "ECCENTRICITY": 0.0042028, "INCLINATION": 74.0324, "RA_OF_ASC_NODE": 331.6936, "ARG_OF_PERICENTER": 23.589, "MEAN_ANOMALY": 151.9548, "EPHEMERIS_TYPE": 0, "CLASSIFICATION_TYPE": "U", "NORAD_CAT_ID": 33848, "ELEMENT_SET_NO": 999, "REV_AT_EPOCH": 88032, "BSTAR": 0.0013081, "MEAN_MOTION_DOT": 4.511e-05, "MEAN_MOTION_DDOT": 0}, "tle": {"line1": "1 33848U 93036CR  25360.68519847  .00004511  00000+0  13081-2 0  9996", "line2": "2 33848  74.0324 331.6936 0042028  23.5890 151.9548 14.44161732880329"}}, "geometry": {"type": "Point", "coordinates": [-170.10613714418926, -65.4155306295971]}}, {"type": "Feature", "properties": {"norad_id": 33892, "name": "COSMOS 2251 DEB", "group": "cosmos-2251-debris", "lat": -14.587376282118226, "lon": -99.57659204158183, "alt_km": 818.1278404224158, "timestamp": "2025-12-26T23:26:42.516829+00:00", "meta": {"OBJECT_NAME": "COSMOS 2251 DEB", "OBJECT_ID": "1993-036CV", "EPOCH": "2025-12-26T14:41:47.145408", "MEAN_MOTION": 14.23382284, "ECCENTRICITY": 0.0112013, "INCLINATION": 73.8026, "RA_OF_ASC_NODE": 76.75, "ARG_OF_PERICENTER": 105.2356, "MEAN_ANOMALY": 21.3871, "EPHEMERIS_TYPE": 0, "CLASSIFICATION_TYPE": "U", "NORAD_CAT_ID": 33892, "ELEMENT_SET_NO": 999, "REV_AT_EPOCH": 87152, "BSTAR": 0.00061113, "MEAN_MOTION_DOT": 1.453e-05, "MEAN_MOTION_DDOT": 0}, "tle": {"line1": "1 33892U 93036CV  25360.61235122  .00001453  00000+0  61113-3 0  9991", "line2": "2 33892  73.8026  76.7500 0112013 105.2356  21.3871 14.23382284871520"}}, "geometry": {"type": "Point", "coordinates": [-99.57659204158183, -14.587376282118226]}}, {"type": "Feature", "properties": {"norad_id": 33894, "name": "COSMOS 2251 DEB", "group": "cosmos-2251-debris", "lat": -69.06708319000045, "lon": -82.55890474644445, "alt_km": 836.4439781257352, "timestamp": "2025-12-26T23:26:42.516839+00:00", "meta": {"OBJECT_NAME": "COSMOS 2251 DEB", "OBJECT_ID": "1993-036CX", "EPOCH": "2025-12-26T07:28:06.751200", "MEAN_MOTION": 13.21329669, "ECCENTRICITY": 0.0578513, "INCLINATION": 73.7663, "RA_OF_ASC_NODE": 328.0775, "ARG_OF_PERICENTER": 245.6983, "MEAN_ANOMALY": 108.2665, "EPHEMERIS_TYPE": 0, "CLASSIFICATION_TYPE": "U", "NORAD_CAT_ID": 33894, "ELEMENT_SET_NO": 999, "REV_AT_EPOCH": 80887, "BSTAR": 0.00063858, "MEAN_MOTION_DOT": 6.11e-06, "MEAN_MOTION_DDOT": 0}, "tle": {"line1": "1 33894U 93036CX  25360.31118925  .00000611  00000+0  63858-3 0  9994", "line2": "2 33894  73.7663 328.0775 0578513 245.6983 108.2665 13.21329669808870"}}, "geometry": {"type": "Point", "coordinates": [-82.55890474644445, -69.06708319000045]}}, {"type": "Feature", "properties": {"norad_id": 33896, "name": "COSMOS 2251 DEB", "group": "cosmos-2251-debris", "lat": 41.635006283602046, "lon": 145.84553176781012, "alt_km": 838.9444389654354, "timestamp": "2025-12-26T23:26:42.516848+00:00", "meta": {"OBJECT_NAME": "COSMOS 2251 DEB", "OBJECT_ID": "1993-036CZ", "EPOCH": "2025-12-26T18:54:44.191008", "MEAN_MOTION": 14.19072892, "ECCENTRICITY": 0.0127287, "INCLINATION": 73.7667, "RA_OF_ASC_NODE": 131.1785, "ARG_OF_PERICENTER": 304.6177, "MEAN_ANOMALY": 213.3113, "EPHEMERIS_TYPE": 0, "CLASSIFICATION_TYPE": "U", "NORAD_CAT_ID": 33896, "ELEMENT_SET_NO": 999, "REV_AT_EPOCH": 86939, "BSTAR": 0.00071164, "MEAN_MOTION_DOT": 1.584e-05, "MEAN_MOTION_DDOT": 0}, "tle": {"line1": "1 33896U 93036CZ  25360.78801147  .00001584  00000+0  71164-3 0  9991", "line2": "2 33896  73.7667 131.1785 0127287 304.6177 213.3113 14.19072892869390"}}, "geometry": {"type": "Point", "coordinates": [145.84553176781012, 41.635006283602046]}}, {"type": "Feature", "properties": {"norad_id": 33899, "name": "COSMOS 2251 DEB", "group": "cosmos-2251-debris", "lat": 57.629743811199525, "lon": 85.34432875726775, "alt_km": 660.5246597328833, "timestamp": "2025-12-26T23:26:42.516857+00:00", "meta": {"OBJECT_NAME": "COSMOS 2251 DEB", "OBJECT_ID": "1993-036DC", "EPOCH": "2025-12-26T05:20:53.655072", "MEAN_MOTION": 14.61299819, "ECCENTRICITY": 0.0055925, "INCLINATION": 74.0532, "RA_OF_ASC_NODE": 59.9717, "ARG_OF_PERICENTER": 118.6354, "MEAN_ANOMALY": 298.2749, "EPHEMERIS_TYPE": 0, "CLASSIFICATION_TYPE": "U", "NORAD_CAT_ID": 33899, "ELEMENT_SET_NO": 999, "REV_AT_EPOCH": 89036, "BSTAR": 0.00077649, "MEAN_MOTION_DOT": 3.891e-05, "MEAN_MOTION_DDOT": 0}, "tle": {"line1": "1 33899U 93036DC  25360.22284323  .00003891  00000+0  77649-3 0  9991", "line2": "2 33899  74.0532  59.9717 0055925 118.6354 298.2749 14.61299819890364"}}, "geometry": {"type": "Point", "coordinates": [85.34432875726775, 57.629743811199525]}}, {"type": "Feature", "properties": {"norad_id": 33900, "name": "COSMOS 2251 DEB", "group": "cosmos-2251-debris", "lat": -47.441111772635146, "lon": -45.448811343018384, "alt_km": 737.1400111281091, "timestamp": "2025-12-26T23:26:42.516867+00:00", "meta": {"OBJECT_NAME": "COSMOS 2251 DEB", "OBJECT_ID": "1993-036DD", "EPOCH": "2025-12-26T07:45:26.487936", "MEAN_MOTION": 14.58395262, "ECCENTRICITY": 0.0046302, "INCLINATION": 74.0196, "RA_OF_ASC_NODE": 333.981, "ARG_OF_PERICENTER": 122.0505, "MEAN_ANOMALY": 357.6558, "EPHEMERIS_TYPE": 0, "CLASSIFICATION_TYPE": "U", "NORAD_CAT_ID": 33900, "ELEMENT_SET_NO": 999, "REV_AT_EPOCH": 89234, "BSTAR": 0.00044466, "MEAN_MOTION_DOT": 2.062e-05, "MEAN_MOTION_DDOT": 0}, "tle": {"line1": "1 33900U 93036DD  25360.32322324  .00002062  00000+0  44466-3 0  9999", "line2": "2 33900  74.0196 333.9810 0046302 122.0505 357.6558 14.58395262892341"}}, "geometry": {"type": "Point", "coordinates": [-45.448811343018384, -47.441111772635146]}}, {"type": "Feature", "properties": {"norad_id": 33901, "name": "COSMOS 2251 DEB", "group": "cosmos-2251-debris", "lat": 34.55892360821146, "lon": 30.698300105706053, "alt_km": 518.7483011850754, "timestamp": "2025-12-26T23:26:42.516876+00:00", "meta": {"OBJECT_NAME": "COSMOS 2251 DEB", "OBJECT_ID": "1993-036DE", "EPOCH": "2025-12-26T12:12:32.866272", "MEAN_MOTION": 15.17368509, "ECCENTRICITY": 0.0029783, "INCLINATION": 73.7743, "RA_OF_ASC_NODE": 20.1195, "ARG_OF_PERICENTER": 149.4577, "MEAN_ANOMALY": 210.836, "EPHEMERIS_TYPE": 0, "CLASSIFICATION_TYPE": "U", "NORAD_CAT_ID": 33901, "ELEMENT_SET_NO": 999, "REV_AT_EPOCH": 89722, "BSTAR": 0.0023502, "MEAN_MOTION_DOT": 0.00047754, "MEAN_MOTION_DDOT": 0}, "tle": {"line1": "1 33901U 93036DE  25360.50871373  .00047754  00000+0  23502-2 0  9997", "line2": "2 33901  73.7743  20.1195 0029783 149.4577 210.8360 15.17368509897226"}}, "geometry": {"type": "Point", "coordinates": [30.698300105706053, 34.55892360821146]}}]}